ONEWEB-0311             
1 49097U 21075Y   26196.87558765  .00000061  00000+0  12341-3 0  9999
2 49097  87.9143   0.1557 0001736  79.0710 281.0617 13.17647588237403
ONEWEB-0312             
1 49098U 21075Z   26196.96671663  .00000018  00000+0  12226-4 0  9998
2 49098  87.9142   0.1479 0002047  83.9194 276.2171 13.17648415237391
ONEWEB-0313             
1 49099U 21075AA  26196.89569328  .00000012  00000+0 -25575-5 0  9992
2 49099  87.9142   0.1666 0001822  88.5119 271.6222 13.17649937237372
ONEWEB-0314             
1 49100U 21075AB  26196.93801503  .00000048  00000+0  90815-4 0  9990
2 49100  87.9155   0.1343 0002057  82.5169 277.6197 13.17651425237351
ONEWEB-0315             
1 49101U 21075AC  26196.87368660  .00000276  00000+0  73205-3 0  9992
2 49101  87.8972 344.9414 0001581  85.7475 274.3834 13.12441796238932
ONEWEB-0316             
1 49102U 21075AD  26196.91614425 -.00000004  00000+0 -43766-4 0  9992
2 49102  87.9194 329.7427 0001952  99.0052 261.1301 13.18686512240991
ONEWEB-0317             
1 49103U 21075AE  26196.87707432  .00000217  00000+0  56740-3 0  9998
2 49103  87.8966 344.9644 0002465 107.9432 252.1965 13.12441847238952
ONEWEB-0318             
1 49104U 21075AF  26196.83675846 -.00000010  00000+0 -59190-4 0  9994
2 49104  87.9197 329.7607 0001796  92.6146 267.5192 13.18686628240946
ONEWEB-0319             
1 49105U 21075AG  26196.87727340  .00000018  00000+0  13758-4 0  9992
2 49105  87.9144   0.1605 0001530  81.3855 278.7450 13.17647493237386
ONEWEB-0323             
1 49106U 21075AH  26196.93467880  .00000366  00000+0  98092-3 0  9999
2 49106  87.8972 344.9346 0001640  78.7854 281.3459 13.12443087238329
ONEWEB-0329             
1 49107U 21075AJ  26196.96163764 -.00000204  00000+0 -55913-3 0  9995
2 49107  87.9146   0.1442 0001915  88.0238 272.1113 13.17648807237378
ONEWEB-0330             
1 49108U 21075AK  26196.96514585  .00000061  00000+0  12509-3 0  9990
2 49108  87.9147   0.1547 0002008  89.5187 270.6175 13.17646821237419
ONEWEB-0292             
1 49186U 21083A   26196.88450587 -.00000225  00000+0 -65227-3 0  9996
2 49186  87.8980 314.5267 0001812  96.8654 263.2681 13.13469655234693
ONEWEB-0303             
1 49187U 21083B   26196.90925299 -.00000021  00000+0 -85862-4 0  9999
2 49187  87.9194 329.7446 0001808  93.9870 266.1469 13.18684544233766
ONEWEB-0306             
1 49188U 21083C   26196.89914656 -.00000084  00000+0 -24640-3 0  9998
2 49188  87.9199 329.7358 0002109 101.6198 258.5172 13.18684532233807
ONEWEB-0307             
1 49189U 21083D   26196.87857532 -.00000052  00000+0 -17684-3 0  9991
2 49189  87.8980 314.5255 0001897  96.3069 263.8277 13.13468376234697
